NORAD_CAT_ID,OBJECT_NAME,OBJECT_TYPE,EPOCH,MEAN_MOTION,ECCENTRICITY,INCLINATION,RA_OF_ASC_NODE,ARG_OF_PERICENTER,MEAN_ANOMALY,BSTAR,MEAN_MOTION_DOT,MEAN_MOTION_DDOT,TLE_LINE0,TLE_LINE1,TLE_LINE2,SEMIMAJOR_AXIS,PERIOD,APOGEE,PERIGEE,DECAYED
53818.0,STARLINK-4749,PAYLOAD,2024-07-31 21:39:26,15.21073512,0.0004806,53.2211,24.9676,284.5052,75.5412,0.00083391,0.00018489,0.0,0 STARLINK-4749,1 53818U 22114A   24213.90238869  .00018489  00000-0  83391-3 0  9999,2 53818  53.2211  24.9676 0004806 284.5052  75.5412 15.21073512104915,6880.738,94.67,505.91,499.296,0.0
53818.0,STARLINK-4749,PAYLOAD,2024-08-01 03:57:52,15.21112274,0.0005065,53.2228,23.7666,285.603,74.4409,0.00088519,0.00019673,0.0,0 STARLINK-4749,1 53818U 22114A   24214.16518609  .00019673  00000-0  88519-3 0  9994,2 53818  53.2228  23.7666 0005065 285.6030  74.4409 15.21112274104312,6880.621,94.668,505.971,499.001,0.0
53818.0,STARLINK-4749,PAYLOAD,2024-08-01 11:50:54,15.21168418,0.0004642,53.2221,22.2588,292.9275,67.1232,0.00062449,0.00013794,0.0,0 STARLINK-4749,1 53818U 22114A   24214.49368907  .00013794  00000-0  62449-3 0  9996,2 53818  53.2221  22.2588 0004642 292.9275  67.1232 15.21168418104363,6880.452,94.664,505.511,499.123,0.0
53818.0,STARLINK-4749,PAYLOAD,2024-08-01 18:09:17,15.21215411,0.0003736,53.2224,21.0636,287.1066,72.9522,0.00086115,0.00019185,0.0,0 STARLINK-4749,1 53818U 22114A   24214.75645654  .00019185  00000-0  86115-3 0  9998,2 53818  53.2224  21.0636 0003736 287.1066  72.9522 15.21215411104401,6880.31,94.661,504.746,499.605,0.0
53818.0,STARLINK-4749,PAYLOAD,2024-08-02 03:36:53,15.21273946,0.0005548,53.224,19.2542,292.9821,67.0591,0.00081625,0.00018199,0.0,0 STARLINK-4749,1 53818U 22114A   24215.15061652  .00018199  00000-0  81625-3 0  9998,2 53818  53.2240  19.2542 0005548 292.9821  67.0591 15.21273946104464,6880.134,94.658,505.816,498.182,0.0
53818.0,STARLINK-4749,PAYLOAD,2024-08-02 11:29:52,15.21307306,0.0006356,53.2216,17.7474,297.3751,62.6599,0.00080495,0.00017962,0.0,0 STARLINK-4749,1 53818U 22114A   24215.47908362  .00017962  00000-0  80495-3 0  9992,2 53818  53.2216  17.7474 0006356 297.3751  62.6599 15.21307306104516,6880.033,94.655,506.271,497.525,0.0
53818.0,STARLINK-4749,PAYLOAD,2024-08-02 14:39:02,15.21351689,0.0004412,53.2232,17.1541,281.3608,78.6894,0.00096498,0.00021633,0.0,0 STARLINK-4749,1 53818U 22114A   24215.61043986  .00021633  00000-0  96498-3 0  9990,2 53818  53.2232  17.1541 0004412 281.3608  78.6894 15.21351689105179,6879.899,94.653,504.8,498.729,0.0
53818.0,STARLINK-4749,PAYLOAD,2024-08-02 17:48:13,15.21371581,0.0005347,53.2224,16.5524,292.5395,67.5036,0.00087049,0.0001949,0.0,0 STARLINK-4749,1 53818U 22114A   24215.74182480  .00019490  00000-0  87049-3 0  9997,2 53818  53.2224  16.5524 0005347 292.5395  67.5036 15.21371581104558,6879.84,94.651,505.383,498.026,0.0
53818.0,STARLINK-4749,PAYLOAD,2024-08-03 03:15:45,15.21433702,0.0006253,53.2229,14.743,298.1585,61.8781,0.00083241,0.00018657,0.0,0 STARLINK-4749,1 53818U 22114A   24216.13594494  .00018657  00000-0  83241-3 0  9997,2 53818  53.2229  14.7430 0006253 298.1585  61.8781 15.21433702104614,6879.652,94.648,505.819,497.215,0.0
53818.0,STARLINK-4749,PAYLOAD,2024-08-03 14:17:51,15.21503195,0.0004552,53.2238,12.6481,291.9098,68.1415,0.00084826,0.00019055,0.0,0 STARLINK-4749,1 53818U 22114A   24216.59573503  .00019055  00000-0  84826-3 0  9998,2 53818  53.2238  12.6481 0004552 291.9098  68.1415 15.21503195105324,6879.443,94.643,504.439,498.176,0.0
53818.0,STARLINK-4749,PAYLOAD,2024-08-03 17:27:00,15.21535469,0.0005172,53.2235,12.0442,295.6112,64.4351,0.00091404,0.00020584,0.0,0 STARLINK-4749,1 53818U 22114A   24216.72708917  .00020584  00000-0  91404-3 0  9991,2 53818  53.2235  12.0442 0005172 295.6112  64.4351 15.21535469104707,6879.345,94.641,504.768,497.652,0.0
53818.0,STARLINK-4749,PAYLOAD,2024-08-04 02:54:29,15.21588205,0.0005679,53.2234,10.235,300.8449,59.1989,0.00090177,0.00020336,0.0,0 STARLINK-4749,1 53818U 22114A   24217.12116950  .00020336  00000-0  90177-3 0  9997,2 53818  53.2234  10.2350 0005679 300.8449  59.1989 15.21588205104768,6879.187,94.638,504.958,497.145,0.0
53818.0,STARLINK-4749,PAYLOAD,2024-08-04 10:47:23,15.2161409,0.0007608,53.2223,8.7299,293.5772,66.4426,0.00078314,0.00017629,0.0,0 STARLINK-4749,1 53818U 22114A   24217.44957307  .00017629  00000-0  78314-3 0  9991,2 53818  53.2223   8.7299 0007608 293.5772  66.4426 15.21614090104816,6879.109,94.636,506.207,495.74,0.0
53818.0,STARLINK-4749,PAYLOAD,2024-08-04 13:56:28,15.21687562,0.0004358,53.223,8.1329,295.678,64.3767,0.00098831,0.00022388,0.0,0 STARLINK-4749,1 53818U 22114A   24217.58088648  .00022388  00000-0  98831-3 0  9993,2 53818  53.2230   8.1329 0004358 295.6780  64.3767 15.21687562105475,6878.887,94.632,503.75,497.754,0.0
53818.0,STARLINK-4749,PAYLOAD,2024-08-04 17:05:36,15.21711319,0.0005745,53.222,7.5312,301.177,58.8664,0.0010385,0.00023566,0.0,0 STARLINK-4749,1 53818U 22114A   24217.71223113  .00023566  00000-0  10385-2 0  9992,2 53818  53.2220   7.5312 0005745 301.1770  58.8664 15.21711319104855,6878.815,94.63,504.632,496.729,0.0
53818.0,STARLINK-4749,PAYLOAD,2024-08-05 02:33:00,15.21776446,0.0006028,53.2227,5.7242,304.3952,55.6475,0.0010723,0.00024394,0.0,0 STARLINK-4749,1 53818U 22114A   24218.10625669  .00024394  00000-0  10723-2 0  9994,2 53818  53.2227   5.7242 0006028 304.3952  55.6475 15.21776446104910,6878.619,94.626,504.631,496.338,0.0
53818.0,STARLINK-4749,PAYLOAD,2024-08-05 14:00:01,15.22080845,0.0006348,53.2211,3.5413,307.3663,147.8719,0.0029462,0.00068628,0.0,0 STARLINK-4749,1 53818U 22114A   24218.58334491  .00068628  00000-0  29462-2 0  9994,2 53818  53.2211   3.5413 0006348 307.3663 147.8719 15.22080845104980,6877.702,94.607,503.933,495.201,0.0
53818.0,STARLINK-4749,PAYLOAD,2024-08-05 22:00:00,15.22114175,0.0006595,53.2208,2.015,309.7063,173.0457,0.004993,0.00117434,0.0,0 STARLINK-4749,1 53818U 22114A   24218.91667824  .00117434  00000-0  49930-2 0  9992,2 53818  53.2208   2.0150 0006595 309.7063 173.0457 15.22114175  5874,6877.602,94.605,504.002,494.931,0.0
53818.0,STARLINK-4749,PAYLOAD,2024-08-06 14:00:01,15.22246793,0.0006657,53.2212,358.96,311.3783,226.5986,0.0025349,0.00059218,0.0,0 STARLINK-4749,1 53818U 22114A   24219.58334491  .00059218  00000-0  25349-2 0  9990,2 53818  53.2212 358.9600 0006657 311.3783 226.5986 15.22246793  5838,6877.202,94.597,503.645,494.489,0.0
53818.0,STARLINK-4749,PAYLOAD,2024-08-06 22:00:00,15.22283243,0.0006889,53.2209,357.4332,313.4007,252.2748,0.0040471,0.00095317,0.0,0 STARLINK-4749,1 53818U 22114A   24219.91667824  .00095317  00000-0  40471-2 0  9999,2 53818  53.2209 357.4332 0006889 313.4007 252.2748 15.22283243105181,6877.092,94.595,503.695,494.22,0.0
53818.0,STARLINK-4749,PAYLOAD,2024-08-07 14:00:01,15.22411378,0.000699,53.2211,354.3776,315.3875,305.9856,0.0026073,0.00061237,0.0,0 STARLINK-4749,1 53818U 22114A   24220.58335648  .00061237  00000-0  26073-2 0  9996,2 53818  53.2211 354.3776 0006990 315.3875 305.9856 15.22411378  5883,6876.707,94.587,503.378,493.765,0.0
53818.0,STARLINK-4749,PAYLOAD,2024-08-07 22:00:00,15.224787,0.0007256,53.2207,352.8501,317.1316,332.1198,0.0038886,0.00092066,0.0,0 STARLINK-4749,1 53818U 22114A   24220.91667824  .00092066  00000-0  38886-2 0  9996,2 53818  53.2207 352.8501 0007256 317.1316 332.1198 15.22478700  5886,6876.504,94.583,503.358,493.379,0.0
53818.0,STARLINK-4749,PAYLOAD,2024-08-08 06:00:02,15.22518522,0.0007171,53.2209,351.3205,317.1035,0.2432,0.0061654,0.00147444,0.0,0 STARLINK-4749,1 53818U 22114A   24221.25002315  .00147444  00000-0  61654-2 0  9992,2 53818  53.2209 351.3205 0007171 317.1035   0.2432 15.22518522105384,6876.384,94.58,503.18,493.318,0.0
53818.0,STARLINK-4749,PAYLOAD,2024-08-08 14:00:01,15.22619839,0.0007369,53.2209,349.7938,319.4114,26.0176,0.0030083,0.00071246,0.0,0 STARLINK-4749,1 53818U 22114A   24221.58335648  .00071246  00000-0  30083-2 0  9994,2 53818  53.2209 349.7938 0007369 319.4114  26.0176 15.22619839  5787,6876.079,94.574,503.011,492.877,0.0
53818.0,STARLINK-4749,PAYLOAD,2024-08-08 22:00:00,15.22699061,0.0007631,53.2206,348.2656,320.9499,52.6133,0.0041595,0.00099252,0.0,0 STARLINK-4749,1 53818U 22114A   24221.91667824  .00099252  00000-0  41595-2 0  9992,2 53818  53.2206 348.2656 0007631 320.9499  52.6133 15.22699061105492,6875.84,94.569,502.952,492.458,0.0
53818.0,STARLINK-4749,PAYLOAD,2024-08-09 12:06:56,15.22670682,0.0007022,53.2216,345.5638,319.4152,40.6322,0.0012726,0.0002982,0.0,0 STARLINK-4749,1 53818U 22114A   24222.50482366  .00029820  00000-0  12726-2 0  9992,2 53818  53.2216 345.5638 0007022 319.4152  40.6322 15.22670682105581,6875.926,94.571,502.619,492.963,0.0
53818.0,STARLINK-4749,PAYLOAD,2024-08-09 13:41:27,15.22675745,0.0007096,53.2221,345.2621,320.0643,39.9832,0.0012743,0.00029866,0.0,0 STARLINK-4749,1 53818U 22114A   24222.57045889  .00029866  00000-0  12743-2 0  9993,2 53818  53.2221 345.2621 0007096 320.0643  39.9832 15.22675745106235,6875.911,94.57,502.655,492.896,0.0
53818.0,STARLINK-4749,PAYLOAD,2024-08-09 15:15:58,15.226831,0.0007637,53.2212,344.9661,320.3048,39.739,0.0013028,0.00030554,0.0,0 STARLINK-4749,1 53818U 22114A   24222.63609228  .00030554  00000-0  13028-2 0  9996,2 53818  53.2212 344.9661 0007637 320.3048  39.7390 15.22683100105609,6875.888,94.57,503.005,492.502,0.0
53818.0,STARLINK-4749,PAYLOAD,2024-08-10 11:44:29,15.22858165,0.0008103,53.2222,341.0505,327.4743,32.5755,0.0011149,0.00026222,0.0,0 STARLINK-4749,1 53818U 22114A   24223.48922794  .00026222  00000-0  11149-2 0  9995,2 53818  53.2222 341.0505 0008103 327.4743  32.5755 15.22858165105739,6875.361,94.559,502.798,491.655,0.0
53818.0,STARLINK-4749,PAYLOAD,2024-08-10 14:53:24,15.22931592,0.0007399,53.2228,340.451,324.6551,35.3956,0.001478,0.00034985,0.0,0 STARLINK-4749,1 53818U 22114A   24223.62042613  .00034985  00000-0  14780-2 0  9993,2 53818  53.2228 340.4510 0007399 324.6551  35.3956 15.22931592106399,6875.14,94.554,502.092,491.919,0.0
